<?xml version="1.0" encoding="UTF-8"?>
<ndm xmlns:xsi="http://www.w3.org/2001/XMLSchema-instance" xsi:noNamespaceSchemaLocation="https://sanaregistry.org/r/ndmxml_unqualified/ndmxml-2.0.0-master-2.0.xsd">
<omm id="CCSDS_OMM_VERS" version="2.0">
<header><CREATION_DATE/><ORIGINATOR/></header><body><segment><metadata><OBJECT_NAME>ORBCOMM-X</OBJECT_NAME><OBJECT_ID>1991-050C</OBJECT_ID><CENTER_NAME>EARTH</CENTER_NAME><REF_FRAME>TEME</REF_FRAME><TIME_SYSTEM>UTC</TIME_SYSTEM><MEAN_ELEMENT_THEORY>SGP4</MEAN_ELEMENT_THEORY></metadata><data><meanElements><EPOCH>2024-05-03T04:47:49.832448</EPOCH><MEAN_MOTION>14.42476959</MEAN_MOTION><ECCENTRICITY>.0003436</ECCENTRICITY><INCLINATION>98.3916</INCLINATION><RA_OF_ASC_NODE>192.1451</RA_OF_ASC_NODE><ARG_OF_PERICENTER>6.2219</ARG_OF_PERICENTER><MEAN_ANOMALY>353.9013</MEAN_ANOMALY></meanElements><tleParameters><EPHEMERIS_TYPE>0</EPHEMERIS_TYPE><CLASSIFICATION_TYPE>U</CLASSIFICATION_TYPE><NORAD_CAT_ID>21576</NORAD_CAT_ID><ELEMENT_SET_NO>999</ELEMENT_SET_NO><REV_AT_EPOCH>72321</REV_AT_EPOCH><BSTAR>.16689E-3</BSTAR><MEAN_MOTION_DOT>.509E-5</MEAN_MOTION_DOT><MEAN_MOTION_DDOT>0</MEAN_MOTION_DDOT></tleParameters></data></segment></body></omm>
<omm id="CCSDS_OMM_VERS" version="2.0">
<header><CREATION_DATE/><ORIGINATOR/></header><body><segment><metadata><OBJECT_NAME>ORBCOMM FM01</OBJECT_NAME><OBJECT_ID>1995-017A</OBJECT_ID><CENTER_NAME>EARTH</CENTER_NAME><REF_FRAME>TEME</REF_FRAME><TIME_SYSTEM>UTC</TIME_SYSTEM><MEAN_ELEMENT_THEORY>SGP4</MEAN_ELEMENT_THEORY></metadata><data><meanElements><EPOCH>2024-05-02T20:45:38.620512</EPOCH><MEAN_MOTION>14.79824057</MEAN_MOTION><ECCENTRICITY>.0008498</ECCENTRICITY><INCLINATION>69.9694</INCLINATION><RA_OF_ASC_NODE>9.1928</RA_OF_ASC_NODE><ARG_OF_PERICENTER>234.2655</ARG_OF_PERICENTER><MEAN_ANOMALY>125.7705</MEAN_ANOMALY></meanElements><tleParameters><EPHEMERIS_TYPE>0</EPHEMERIS_TYPE><CLASSIFICATION_TYPE>U</CLASSIFICATION_TYPE><NORAD_CAT_ID>23545</NORAD_CAT_ID><ELEMENT_SET_NO>999</ELEMENT_SET_NO><REV_AT_EPOCH>55194</REV_AT_EPOCH><BSTAR>.78415E-3</BSTAR><MEAN_MOTION_DOT>.5845E-4</MEAN_MOTION_DOT><MEAN_MOTION_DDOT>0</MEAN_MOTION_DDOT></tleParameters></data></segment></body></omm>
<omm id="CCSDS_OMM_VERS" version="2.0">
<header><CREATION_DATE/><ORIGINATOR/></header><body><segment><metadata><OBJECT_NAME>ORBCOMM FM02</OBJECT_NAME><OBJECT_ID>1995-017B</OBJECT_ID><CENTER_NAME>EARTH</CENTER_NAME><REF_FRAME>TEME</REF_FRAME><TIME_SYSTEM>UTC</TIME_SYSTEM><MEAN_ELEMENT_THEORY>SGP4</MEAN_ELEMENT_THEORY></metadata><data><meanElements><EPOCH>2024-05-03T03:53:49.066080</EPOCH><MEAN_MOTION>14.79405804</MEAN_MOTION><ECCENTRICITY>.0010185</ECCENTRICITY><INCLINATION>69.9709</INCLINATION><RA_OF_ASC_NODE>27.8730</RA_OF_ASC_NODE><ARG_OF_PERICENTER>227.6452</ARG_OF_PERICENTER><MEAN_ANOMALY>132.3835</MEAN_ANOMALY></meanElements><tleParameters><EPHEMERIS_TYPE>0</EPHEMERIS_TYPE><CLASSIFICATION_TYPE>U</CLASSIFICATION_TYPE><NORAD_CAT_ID>23546</NORAD_CAT_ID><ELEMENT_SET_NO>999</ELEMENT_SET_NO><REV_AT_EPOCH>55158</REV_AT_EPOCH><BSTAR>.78678E-3</BSTAR><MEAN_MOTION_DOT>.5808E-4</MEAN_MOTION_DOT><MEAN_MOTION_DDOT>0</MEAN_MOTION_DDOT></tleParameters></data></segment></body></omm>
<omm id="CCSDS_OMM_VERS" version="2.0">
<header><CREATION_DATE/><ORIGINATOR/></header><body><segment><metadata><OBJECT_NAME>ORBCOMM FM08</OBJECT_NAME><OBJECT_ID>1997-084A</OBJECT_ID><CENTER_NAME>EARTH</CENTER_NAME><REF_FRAME>TEME</REF_FRAME><TIME_SYSTEM>UTC</TIME_SYSTEM><MEAN_ELEMENT_THEORY>SGP4</MEAN_ELEMENT_THEORY></metadata><data><meanElements><EPOCH>2024-05-02T12:01:52.358016</EPOCH><MEAN_MOTION>14.42479974</MEAN_MOTION><ECCENTRICITY>.0008422</ECCENTRICITY><INCLINATION>45.0129</INCLINATION><RA_OF_ASC_NODE>174.3461</RA_OF_ASC_NODE><ARG_OF_PERICENTER>321.1054</ARG_OF_PERICENTER><MEAN_ANOMALY>38.9190</MEAN_ANOMALY></meanElements><tleParameters><EPHEMERIS_TYPE>0</EPHEMERIS_TYPE><CLASSIFICATION_TYPE>U</CLASSIFICATION_TYPE><NORAD_CAT_ID>25112</NORAD_CAT_ID><ELEMENT_SET_NO>999</ELEMENT_SET_NO><REV_AT_EPOCH>38200</REV_AT_EPOCH><BSTAR>.498E-3</BSTAR><MEAN_MOTION_DOT>.1522E-4</MEAN_MOTION_DOT><MEAN_MOTION_DDOT>0</MEAN_MOTION_DDOT></tleParameters></data></segment></body></omm>
<omm id="CCSDS_OMM_VERS" version="2.0">
<header><CREATION_DATE/><ORIGINATOR/></header><body><segment><metadata><OBJECT_NAME>ORBCOMM FM10</OBJECT_NAME><OBJECT_ID>1997-084B</OBJECT_ID><CENTER_NAME>EARTH</CENTER_NAME><REF_FRAME>TEME</REF_FRAME><TIME_SYSTEM>UTC</TIME_SYSTEM><MEAN_ELEMENT_THEORY>SGP4</MEAN_ELEMENT_THEORY></metadata><data><meanElements><EPOCH>2024-05-02T12:11:07.826208</EPOCH><MEAN_MOTION>14.42393469</MEAN_MOTION><ECCENTRICITY>.0006861</ECCENTRICITY><INCLINATION>45.0142</INCLINATION><RA_OF_ASC_NODE>176.1644</RA_OF_ASC_NODE><ARG_OF_PERICENTER>294.1344</ARG_OF_PERICENTER><MEAN_ANOMALY>65.8789</MEAN_ANOMALY></meanElements><tleParameters><EPHEMERIS_TYPE>0</EPHEMERIS_TYPE><CLASSIFICATION_TYPE>U</CLASSIFICATION_TYPE><NORAD_CAT_ID>25113</NORAD_CAT_ID><ELEMENT_SET_NO>999</ELEMENT_SET_NO><REV_AT_EPOCH>55715</REV_AT_EPOCH><BSTAR>.47643E-3</BSTAR><MEAN_MOTION_DOT>.1447E-4</MEAN_MOTION_DOT><MEAN_MOTION_DDOT>0</MEAN_MOTION_DDOT></tleParameters></data></segment></body></omm>
<omm id="CCSDS_OMM_VERS" version="2.0">
<header><CREATION_DATE/><ORIGINATOR/></header><body><segment><metadata><OBJECT_NAME>ORBCOMM FM11</OBJECT_NAME><OBJECT_ID>1997-084C</OBJECT_ID><CENTER_NAME>EARTH</CENTER_NAME><REF_FRAME>TEME</REF_FRAME><TIME_SYSTEM>UTC</TIME_SYSTEM><MEAN_ELEMENT_THEORY>SGP4</MEAN_ELEMENT_THEORY></metadata><data><meanElements><EPOCH>2024-05-02T10:57:20.862144</EPOCH><MEAN_MOTION>14.42276795</MEAN_MOTION><ECCENTRICITY>.0007589</ECCENTRICITY><INCLINATION>45.0125</INCLINATION><RA_OF_ASC_NODE>176.4704</RA_OF_ASC_NODE><ARG_OF_PERICENTER>295.2091</ARG_OF_PERICENTER><MEAN_ANOMALY>64.7972</MEAN_ANOMALY></meanElements><tleParameters><EPHEMERIS_TYPE>0</EPHEMERIS_TYPE><CLASSIFICATION_TYPE>U</CLASSIFICATION_TYPE><NORAD_CAT_ID>25114</NORAD_CAT_ID><ELEMENT_SET_NO>999</ELEMENT_SET_NO><REV_AT_EPOCH>38211</REV_AT_EPOCH><BSTAR>.53197E-3</BSTAR><MEAN_MOTION_DOT>.1629E-4</MEAN_MOTION_DOT><MEAN_MOTION_DDOT>0</MEAN_MOTION_DDOT></tleParameters></data></segment></body></omm>
<omm id="CCSDS_OMM_VERS" version="2.0">
<header><CREATION_DATE/><ORIGINATOR/></header><body><segment><metadata><OBJECT_NAME>ORBCOMM FM12</OBJECT_NAME><OBJECT_ID>1997-084D</OBJECT_ID><CENTER_NAME>EARTH</CENTER_NAME><REF_FRAME>TEME</REF_FRAME><TIME_SYSTEM>UTC</TIME_SYSTEM><MEAN_ELEMENT_THEORY>SGP4</MEAN_ELEMENT_THEORY></metadata><data><meanElements><EPOCH>2024-05-02T19:57:41.844384</EPOCH><MEAN_MOTION>14.42235223</MEAN_MOTION><ECCENTRICITY>.0006638</ECCENTRICITY><INCLINATION>45.0135</INCLINATION><RA_OF_ASC_NODE>174.3733</RA_OF_ASC_NODE><ARG_OF_PERICENTER>295.6727</ARG_OF_PERICENTER><MEAN_ANOMALY>64.3438</MEAN_ANOMALY></meanElements><tleParameters><EPHEMERIS_TYPE>0</EPHEMERIS_TYPE><CLASSIFICATION_TYPE>U</CLASSIFICATION_TYPE><NORAD_CAT_ID>25115</NORAD_CAT_ID><ELEMENT_SET_NO>999</ELEMENT_SET_NO><REV_AT_EPOCH>38220</REV_AT_EPOCH><BSTAR>.44657E-3</BSTAR><MEAN_MOTION_DOT>.1343E-4</MEAN_MOTION_DOT><MEAN_MOTION_DDOT>0</MEAN_MOTION_DDOT></tleParameters></data></segment></body></omm>
<omm id="CCSDS_OMM_VERS" version="2.0">
<header><CREATION_DATE/><ORIGINATOR/></header><body><segment><metadata><OBJECT_NAME>ORBCOMM FM09</OBJECT_NAME><OBJECT_ID>1997-084E</OBJECT_ID><CENTER_NAME>EARTH</CENTER_NAME><REF_FRAME>TEME</REF_FRAME><TIME_SYSTEM>UTC</TIME_SYSTEM><MEAN_ELEMENT_THEORY>SGP4</MEAN_ELEMENT_THEORY></metadata><data><meanElements><EPOCH>2024-05-03T02:52:42.350304</EPOCH><MEAN_MOTION>14.42201968</MEAN_MOTION><ECCENTRICITY>.0007914</ECCENTRICITY><INCLINATION>45.0139</INCLINATION><RA_OF_ASC_NODE>173.6817</RA_OF_ASC_NODE><ARG_OF_PERICENTER>287.6087</ARG_OF_PERICENTER><MEAN_ANOMALY>72.3898</MEAN_ANOMALY></meanElements><tleParameters><EPHEMERIS_TYPE>0</EPHEMERIS_TYPE><CLASSIFICATION_TYPE>U</CLASSIFICATION_TYPE><NORAD_CAT_ID>25116</NORAD_CAT_ID><ELEMENT_SET_NO>999</ELEMENT_SET_NO><REV_AT_EPOCH>38224</REV_AT_EPOCH><BSTAR>.46427E-3</BSTAR><MEAN_MOTION_DOT>.1401E-4</MEAN_MOTION_DOT><MEAN_MOTION_DDOT>0</MEAN_MOTION_DDOT></tleParameters></data></segment></body></omm>

</ndm>
